0 COSMOS 2251 DEB
1 35593U 93036AML 13283.64607759  .00001595  00000-0  80665-3 0  3629
2 35593 074.0885 264.1053 0123691 302.6431 178.2434 14.13087296222636
0 COSMOS 2251 DEB
1 35593U 93036AML 13287.24421416  .00001597  00000-0  80725-3 0  3633
2 35593 074.0889 257.7608 0123790 295.5209 122.3123 14.13099262223145
0 COSMOS 2251 DEB
1 35593U 93036AML 13289.29885481  .00001562  00000-0  78966-3 0  3643
2 35593 074.0891 254.1378 0123806 291.4482 134.5532 14.13109871223438
0 COSMOS 2251 DEB
1 35593U 93036AML 13293.19108917  .00001754  00000-0  88495-3 0  3651
2 35593 074.0891 247.2753 0123796 283.7368 135.0560 14.13121678223989
0 COSMOS 2251 DEB
1 35593U 93036AML 13296.16452667  .00001663  00000-0  83954-3 0  3660
2 35593 074.0893 242.0341 0123730 277.8336 141.6011 14.13132681224402
